COSMOS 2251 DEB         
1 34814U 93036ABD 17345.26454295  .00000404  00000-0  17308-3 0  9998
2 34814  73.8986 282.0391 0059976  46.4478 103.4516 14.27101581455551
